KINEIS-2D               
1 62930U 25028C   26189.68194007  .00001300  00000+0  19717-3 0  9999
2 62930  97.9275 241.7134 0004540 123.6335 236.5308 14.75756150 75885
KINEIS-2E               
1 62931U 25028D   26189.42887351  .00001156  00000+0  17089-3 0  9992
2 62931  97.8944 240.6094 0002128 100.3448 259.8003 14.77075646 75918
KINEIS-2A               
1 62932U 25028E   26189.62266208  .00001060  00000+0  17129-3 0  9996
2 62932  98.1290 245.0406 0006068  99.4168 260.7726 14.73439984 75768
KINEIS-2B               
1 62934U 25028G   26189.73584274  .00001002  00000+0  16201-3 0  9992
2 62934  97.9657 242.2062 0005019  88.3004 271.8779 14.73441148 75836
KINEIS-4E               
1 63300U 25056A   26189.92908135  .00001078  00000+0  17825-3 0  9994
2 63300  97.9062 313.2235 0003055  96.1443 264.0113 14.72291069 70326
KINEIS-4C               
1 63301U 25056B   26189.94155284  .00001081  00000+0  17869-3 0  9998
2 63301  97.9115 313.4803 0002363 238.6182 121.4795 14.72312593 70332
KINEIS-4D               
1 63302U 25056C   26189.94511435  .00001101  00000+0  18139-3 0  9997
2 63302  97.9037 313.4620 0001120 251.7820 108.3266 14.72415010 70333
KINEIS-4A               
1 63303U 25056D   26189.91211784  .00001076  00000+0  17787-3 0  9998
2 63303  97.9131 313.3750 0001619 164.6228 195.5029 14.72322122 70324
KINEIS-4B               
1 63304U 25056E   26189.96277822  .00001067  00000+0  17635-3 0  9991
2 63304  97.9143 313.4808 0004790 214.1880 145.9019 14.72316739 70326
