{"fetched_at":"2026-07-09T08:00:57.431Z","source":"https://celestrak.org/NORAD/elements/gp.php?NAME=KINEIS&FORMAT=JSON","constellation":"kineis","records":[{"OBJECT_NAME":"KINEIS-2D","OBJECT_ID":"2025-028C","EPOCH":"2026-07-08T16:21:59.622048","CLASSIFICATION_TYPE":"U","MEAN_MOTION":14.7575615,"ECCENTRICITY":0.00045409,"INCLINATION":97.9275,"RA_OF_ASC_NODE":241.7134,"ARG_OF_PERICENTER":123.6335,"MEAN_ANOMALY":236.5308,"EPHEMERIS_TYPE":0,"NORAD_CAT_ID":62930,"ELEMENT_SET_NO":999,"REV_AT_EPOCH":7588,"BSTAR":0.00019716763,"MEAN_MOTION_DOT":0.000013,"MEAN_MOTION_DDOT":0},{"OBJECT_NAME":"KINEIS-2E","OBJECT_ID":"2025-028D","EPOCH":"2026-07-08T10:17:34.671264","CLASSIFICATION_TYPE":"U","MEAN_MOTION":14.77075646,"ECCENTRICITY":0.00021284,"INCLINATION":97.8944,"RA_OF_ASC_NODE":240.6094,"ARG_OF_PERICENTER":100.3448,"MEAN_ANOMALY":259.8003,"EPHEMERIS_TYPE":0,"NORAD_CAT_ID":62931,"ELEMENT_SET_NO":999,"REV_AT_EPOCH":7591,"BSTAR":0.00017089116,"MEAN_MOTION_DOT":0.00001156,"MEAN_MOTION_DDOT":0},{"OBJECT_NAME":"KINEIS-2A","OBJECT_ID":"2025-028E","EPOCH":"2026-07-08T14:56:38.003712","CLASSIFICATION_TYPE":"U","MEAN_MOTION":14.73439984,"ECCENTRICITY":0.00060683,"INCLINATION":98.129,"RA_OF_ASC_NODE":245.0406,"ARG_OF_PERICENTER":99.4168,"MEAN_ANOMALY":260.7726,"EPHEMERIS_TYPE":0,"NORAD_CAT_ID":62932,"ELEMENT_SET_NO":999,"REV_AT_EPOCH":7576,"BSTAR":0.00017128952,"MEAN_MOTION_DOT":0.0000106,"MEAN_MOTION_DDOT":0},{"OBJECT_NAME":"KINEIS-2B","OBJECT_ID":"2025-028G","EPOCH":"2026-07-08T17:39:36.812736","CLASSIFICATION_TYPE":"U","MEAN_MOTION":14.73441148,"ECCENTRICITY":0.0005019,"INCLINATION":97.9657,"RA_OF_ASC_NODE":242.2062,"ARG_OF_PERICENTER":88.3004,"MEAN_ANOMALY":271.8779,"EPHEMERIS_TYPE":0,"NORAD_CAT_ID":62934,"ELEMENT_SET_NO":999,"REV_AT_EPOCH":7583,"BSTAR":0.00016200579,"MEAN_MOTION_DOT":0.00001002,"MEAN_MOTION_DDOT":0},{"OBJECT_NAME":"KINEIS-4E","OBJECT_ID":"2025-056A","EPOCH":"2026-07-08T22:17:52.628640","CLASSIFICATION_TYPE":"U","MEAN_MOTION":14.72291069,"ECCENTRICITY":0.0003055,"INCLINATION":97.9062,"RA_OF_ASC_NODE":313.2235,"ARG_OF_PERICENTER":96.1443,"MEAN_ANOMALY":264.0113,"EPHEMERIS_TYPE":0,"NORAD_CAT_ID":63300,"ELEMENT_SET_NO":999,"REV_AT_EPOCH":7032,"BSTAR":0.00017824539,"MEAN_MOTION_DOT":0.00001078,"MEAN_MOTION_DDOT":0},{"OBJECT_NAME":"KINEIS-4C","OBJECT_ID":"2025-056B","EPOCH":"2026-07-08T22:35:50.165376","CLASSIFICATION_TYPE":"U","MEAN_MOTION":14.72312593,"ECCENTRICITY":0.00023634,"INCLINATION":97.9115,"RA_OF_ASC_NODE":313.4803,"ARG_OF_PERICENTER":238.6182,"MEAN_ANOMALY":121.4795,"EPHEMERIS_TYPE":0,"NORAD_CAT_ID":63301,"ELEMENT_SET_NO":999,"REV_AT_EPOCH":7033,"BSTAR":0.00017869384,"MEAN_MOTION_DOT":0.00001081,"MEAN_MOTION_DDOT":0},{"OBJECT_NAME":"KINEIS-4D","OBJECT_ID":"2025-056C","EPOCH":"2026-07-08T22:40:57.879840","CLASSIFICATION_TYPE":"U","MEAN_MOTION":14.7241501,"ECCENTRICITY":0.00011206,"INCLINATION":97.9037,"RA_OF_ASC_NODE":313.462,"ARG_OF_PERICENTER":251.782,"MEAN_ANOMALY":108.3266,"EPHEMERIS_TYPE":0,"NORAD_CAT_ID":63302,"ELEMENT_SET_NO":999,"REV_AT_EPOCH":7033,"BSTAR":0.00018139454,"MEAN_MOTION_DOT":0.00001101,"MEAN_MOTION_DDOT":0},{"OBJECT_NAME":"KINEIS-4A","OBJECT_ID":"2025-056D","EPOCH":"2026-07-08T21:53:26.981376","CLASSIFICATION_TYPE":"U","MEAN_MOTION":14.72322122,"ECCENTRICITY":0.00016194,"INCLINATION":97.9131,"RA_OF_ASC_NODE":313.375,"ARG_OF_PERICENTER":164.6228,"MEAN_ANOMALY":195.5029,"EPHEMERIS_TYPE":0,"NORAD_CAT_ID":63303,"ELEMENT_SET_NO":999,"REV_AT_EPOCH":7032,"BSTAR":0.00017786803,"MEAN_MOTION_DOT":0.00001076,"MEAN_MOTION_DDOT":0},{"OBJECT_NAME":"KINEIS-4B","OBJECT_ID":"2025-056E","EPOCH":"2026-07-08T23:06:24.038208","CLASSIFICATION_TYPE":"U","MEAN_MOTION":14.72316739,"ECCENTRICITY":0.00047905,"INCLINATION":97.9143,"RA_OF_ASC_NODE":313.4808,"ARG_OF_PERICENTER":214.188,"MEAN_ANOMALY":145.9019,"EPHEMERIS_TYPE":0,"NORAD_CAT_ID":63304,"ELEMENT_SET_NO":999,"REV_AT_EPOCH":7032,"BSTAR":0.00017634944,"MEAN_MOTION_DOT":0.00001067,"MEAN_MOTION_DDOT":0}]}
